{
    "links": {
        "self": "http://www.neowsapp.com/rest/v1/neo/3763622?api_key=iIulBulltgU6a56xZRHN4H3l9WmuAYTsLGpBGhQ2"
    },
    "id": "3763622",
    "neo_reference_id": "3763622",
    "name": "(2016 VT5)",
    "designation": "2016 VT5",
    "nasa_jpl_url": "http://ssd.jpl.nasa.gov/sbdb.cgi?sstr=3763622",
    "absolute_magnitude_h": 24.6,
    "estimated_diameter": {
        "kilometers": {
            "estimated_diameter_min": 0.0319561887,
            "estimated_diameter_max": 0.0714562102
        },
        "meters": {
            "estimated_diameter_min": 31.9561886721,
            "estimated_diameter_max": 71.4562101727
        },
        "miles": {
            "estimated_diameter_min": 0.0198566489,
            "estimated_diameter_max": 0.0444008168
        },
        "feet": {
            "estimated_diameter_min": 104.8431420431,
            "estimated_diameter_max": 234.436392583
        }
    },
    "is_potentially_hazardous_asteroid": false,
    "close_approach_data": [
        {
            "close_approach_date": "2016-11-09",
            "close_approach_date_full": "2016-Nov-09 15:44",
            "epoch_date_close_approach": 1478706240000,
            "relative_velocity": {
                "kilometers_per_second": "7.1983213136",
                "kilometers_per_hour": "25913.9567290091",
                "miles_per_hour": "16101.9249464223"
            },
            "miss_distance": {
                "astronomical": "0.0952267678",
                "lunar": "37.0432126742",
                "kilometers": "14245721.629864586",
                "miles": "8851880.9536238468"
            },
            "orbiting_body": "Earth"
        }
    ],
    "orbital_data": {
        "orbit_id": "4",
        "orbit_determination_date": "2017-04-06 08:22:14",
        "first_observation_date": "2016-11-10",
        "last_observation_date": "2016-11-24",
        "data_arc_in_days": 14,
        "observations_used": 38,
        "orbit_uncertainty": "8",
        "minimum_orbit_intersection": ".0947412",
        "jupiter_tisserand_invariant": "3.922",
        "epoch_osculation": "2457705.5",
        "eccentricity": ".4055174775107667",
        "semi_major_axis": "1.818892464732649",
        "inclination": "10.83965598089091",
        "ascending_node_longitude": "54.08864001315953",
        "orbital_period": "896.0019658775261",
        "perihelion_distance": "1.081299780570924",
        "perihelion_argument": "348.6074606291477",
        "aphelion_distance": "2.556485148894374",
        "perihelion_time": "2457697.105794669510",
        "mean_anomaly": "3.372664384744735",
        "mean_motion": ".401784832745789",
        "equinox": "J2000",
        "orbit_class": {
            "orbit_class_type": "AMO",
            "orbit_class_description": "Near-Earth asteroid orbits similar to that of 1221 Amor",
            "orbit_class_range": "1.017 AU < q (perihelion) < 1.3 AU"
        }
    },
    "is_sentry_object": false
}